ONEWEB-0102             
1 47258U 20100A   26015.50715829 -.00000299  00000+0 -86641-3 0  9999
2 47258  87.8920  20.9993 0001569  84.6507 275.4801 13.12443864244705
ONEWEB-0109             
1 47259U 20100B   26015.51562547 -.00000013  00000+0 -72468-4 0  9995
2 47259  87.8926  20.9684 0001668  92.2818 267.8502 13.12444506244537
ONEWEB-0110             
1 47260U 20100C   26015.54274298  .00000425  00000+0  11451-2 0  9991
2 47260  87.8929  20.9476 0001618  81.3479 278.7833 13.12443145244703
ONEWEB-0111             
1 47261U 20100D   26015.03955657 -.00000328  00000+0 -94712-3 0  9997
2 47261  87.8928  21.0660 0001843  85.6645 274.4694 13.12444758244475
ONEWEB-0114             
1 47262U 20100E   26015.45125300  .00000371  00000+0  99468-3 0  9997
2 47262  87.8930  20.9791 0001725 102.3399 257.7923 13.12444362244485
ONEWEB-0117             
1 47263U 20100F   26015.44278581  .00000095  00000+0  22881-3 0  9995
2 47263  87.8927  20.9767 0001744  88.9415 271.1913 13.12443908244499
ONEWEB-0118             
1 47264U 20100G   26015.55291673  .00000050  00000+0  10304-3 0  9993
2 47264  87.8929  20.9558 0001987  99.6077 260.5276 13.12442652244705
ONEWEB-0119             
1 47265U 20100H   26015.57831668 -.00000439  00000+0 -12544-2 0  9990
2 47265  87.8919  20.9816 0001776  91.5632 268.5700 13.12444515244683
